# Made by eph2tle, compiled Sep 29 2024 11:19:35
# Run at Sat Oct 12 08:53:17 2024
#
# No updates
#
#    The following TLEs (Two-Line Elements) were generated by fitting
# a numerically-integrated ephemeris,  based on the orbit given below,
# to the SDP4/SGP4 models.  Each TLE is good for the interval between
# its epoch and the epoch of the subsequent TLE (usually one day).
# The maximum deviation between the numerically integrated ephemerides
# and the TLE-based ephemeris, in kilometers,  is given for each TLE
# as the "worst residual".
#
#    This fitting is done using the 'eph2tle' code packaged with Find_Orb.
# The code has details on how the TLEs were computed :
#
#    https://github.com/Bill-Gray/find_orb/eph2tle.cpp
#
#    Be warned:  the error given is that between the numerically
# integrated ephems and the TLE model.  There will usually be at
# least some additional difference between the ephems and the actual
# motion of the satellite,  especially if the ephemerides are based
# on a short arc.  If the following orbital elements say something
# like "[based on] 10 observations 2015 Jan. 1-13",  and the TLEs
# are for 2015 May,  the extrapolation may be tenuous at best.  If
# your application requires a specific level of accuracy,  you may
# want to contact me;  I can give you some idea as to the fit of the
# underlying data (and possibly TLEs based on newer data).
#
#   You can usually find the underlying observational data,  and the
# fitted orbit,  residuals,  ephemerides,  and sometimes some comments
# about the object,  among the pages listed at
#
#    https://www.projectpluto.com/pluto/mpecs/pseudo.htm
#
#    WARNING:  for this object,  "normal" TLEs cannot be fitted.  (This
# usually means an object with an hyperbolic or nearly-parabolic orbit.)
# For this and similar cases,   an alternative model is used,  in which
# most of the traditional TLE data is replaced by six signed 8-digit hex
# numbers.  These six numbers are a state vector,  numerically integrated
# using a simplified force model.  This is necessary for objects at L2 or
# L1,  and sometimes for objects in high orbits where the SDP4/SGP4 model
# fails.  Some documentation is in 'get_el.cpp' in the source code at
# https://www.github.com/Bill-Gray/sat_code ; look for 'hex' in that file,
# with the actual integration done in 'sdp4.cpp'.  But be aware:  it's my
# own extension,  doesn't work with other code,  and is therefore used
# only when necessary.
#
#    Also,  if you use a TLE outside the "correct" time range (between
# its MJD and that of the next TLE),  all bets are off.  I've carefully
# computed and minimized the worst error over the "correct" time frame,
# but the ephemeris may (or may not) diverge wildly outside of it.
#
#    Hera was designated as 2024-180A.  This object is undesignated.  It
# could probably be called 2024-180B,  but I've had problems before in
# thinking a designation wouldn't be used... best to pick one that is
# unlikely to conflict with a later 'official' designation.
#
# Ephem range: 60591.000000 60661.000000 1.000000
# Created Sat Oct 12 08:52:56 2024
# Ephemeris start:  8 Oct 2024  0:00:00
# Ephemeris end:   17 Dec 2024  0:00:00
# Times are all TDT
# Positions/velocities are in equatorial J2000
# Orbital elements:  Hera upper stage
#    Perigee 2024 Oct 7.6571 +/- 4.3e-5 TT = 15:46:10 (JD 2460591.1571)
# Epoch 2024 Oct  9.0 TT = JDT 2460592.5                           Find_Orb
# q  6576.3391 +/- 1.65               (J2000 equator)
# H   25.38 G 0.15                    Peri.  321.1939 +/- 0.006
#                                     Node    34.7589 +/- 0.0048
# e   1.518175 +/- 0.00026            Incl.   34.0659 +/- 0.000059
# 43 of 75 observations 2024 Oct. 7-9; mean residual 2.258 sigmas
#
# 1 NoradU COSPAR   Epoch.epoch     dn/dt/2  d2n/dt2/6 BSTAR    T El# C
# 2 NoradU Inclina RAAscNode Eccent  ArgPeri MeanAno  MeanMotion Rev# C

# Worst residual: 9.68 km
# MJD 60591.000000 (2024 Oct  8  0:00)
Hera upper stage
1 99999U 24180Z   24281.99919926 -001FXHJT +0027YIO5 +001S8FY8H 24775
2 99999                          -000I2Y3Q +000N8DDB +000JTLIL     01

# Worst residual: 11.20 km
# MJD 60592.000000 (2024 Oct  9  0:00)
Hera upper stage
1 99999U 24180Z   24282.99919926 -005NTLPD +007ME7UJ +006ECCP2H 24771
2 99999                          -000HCYVF +000M76N2 +000IYYWH     03

# Worst residual: 1.57 km
# MJD 60593.000000 (2024 Oct 10  0:00)
Hera upper stage
1 99999U 24180Z   24283.99919926 -009T6YL1 +00CXCH4E +00AXIXZ5H 24770
2 99999                          -000H8LMC +000M13M6 +000ITQW0     06

# Worst residual: 1.26 km
# MJD 60594.000000 (2024 Oct 11  0:00)
Hera upper stage
1 99999U 24180Z   24284.99919926 -00DXX194 +00I7BHVT +00FFV1DQH 24778
2 99999                          -000H702F +000LY8O9 +000IR95X     08

# Worst residual: 1.50 km
# MJD 60595.000000 (2024 Oct 12  0:00)
Hera upper stage
1 99999U 24180Z   24285.99919926 -00I2E1T1 +00NGPZDA +00JXP9BAH 24770
2 99999                          -000H6DAN +000LW68Z +000IPGQ1     09

# Worst residual: 1.93 km
# MJD 60596.000000 (2024 Oct 13  0:00)
Hera upper stage
1 99999U 24180Z   24286.99919926 -00M6RSWP +00SPNHPF +00OF4XQGH 24778
2 99999                          -000H66ZF +000LU902 +000INU5F     06

# Worst residual: 2.47 km
# MJD 60597.000000 (2024 Oct 14  0:00)
Hera upper stage
1 99999U 24180Z   24287.99919926 -00QB55JT +00XY406Q +00SW6G05H 24770
2 99999                          -000H68VB +000LS7LR +000IM5ST     04

# Worst residual: 3.01 km
# MJD 60598.000000 (2024 Oct 15  0:00)
Hera upper stage
1 99999U 24180Z   24288.99919926 -00UFJEJM +01361WT6 +00XCSUU0H 24777
2 99999                          -000H6DNE +000LPXEV +000IKBX3     07

# Worst residual: 3.38 km
# MJD 60599.000000 (2024 Oct 16  0:00)
Hera upper stage
1 99999U 24180Z   24289.99919926 -00YJYPLZ +018DERQC +011SYKSJH 24772
2 99999                          -000H6GXP +000LNBYD +000IIAHB     04

# Worst residual: 3.48 km
# MJD 60600.000000 (2024 Oct 17  0:00)
Hera upper stage
1 99999U 24180Z   24290.99919926 -012OE802 +01DK3Q4A +0168LNNIH 24779
2 99999                          -000H6EMS +000LKE61 +000IG0HH     01

# Worst residual: 3.38 km
# MJD 60601.000000 (2024 Oct 18  0:00)
Hera upper stage
1 99999U 24180Z   24291.99919926 -016SS4KN +01IQ1T3O +01ANNZY5H 24776
2 99999                          -000H62W6 +000LH45C +000IDHOW     01

# Worst residual: 3.31 km
# MJD 60602.000000 (2024 Oct 19  0:00)
Hera upper stage
1 99999U 24180Z   24292.99919926 -01AX1QPG +01NV66XR +01F23IUHH 24776
2 99999                          -000H5EBK +000LDIY8 +000IAQGL     01

# Worst residual: 3.46 km
# MJD 60603.000000 (2024 Oct 20  0:00)
Hera upper stage
1 99999U 24180Z   24293.99919926 -01F13N7V +01SZEE7J +01JFUALUH 24777
2 99999                          -000H4A6Y +000L9OBJ +000I7RKT     04

# Worst residual: 3.89 km
# MJD 60604.000000 (2024 Oct 21  0:00)
Hera upper stage
1 99999U 24180Z   24294.99919926 -01J4TUPW +01Y2OEE9 +01NSULFDH 24775
2 99999                          -000H2OK1 +000L5MDB +000I4M2B     02

# Worst residual: 4.48 km
# MJD 60605.000000 (2024 Oct 22  0:00)
Hera upper stage
1 99999U 24180Z   24295.99919926 -01N8403W +0234YPPU +01S52YOZH 24771
2 99999                          -000H0K61 +000L1FA8 +000I1B02     07

# Worst residual: 5.06 km
# MJD 60606.000000 (2024 Oct 23  0:00)
Hera upper stage
1 99999U 24180Z   24296.99919926 -01RATHZT +02868CVO +01WGI709H 24771
2 99999                          -000GXWBK +000KX54U +000HXVFE     07

# Worst residual: 5.51 km
# MJD 60607.000000 (2024 Oct 24  0:00)
Hera upper stage
1 99999U 24180Z   24297.99919926 -01VCTMJO +02D6GTOS +020R3BJ2H 24776
2 99999                          -000GUONW +000KSTSY +000HUCA8     06

# Worst residual: 5.80 km
# MJD 60608.000000 (2024 Oct 25  0:00)
Hera upper stage
1 99999U 24180Z   24298.99919926 -01ZDZLUM +02I5O1DL +0250TL4UH 24771
2 99999                          -000GQX1P +000KOIZH +000HQQEZ     09

# Worst residual: 5.96 km
# MJD 60609.000000 (2024 Oct 26  0:00)
Hera upper stage
1 99999U 24180Z   24299.99919926 -023E6N8N +02N3UB4U +0299OFN2H 24772
2 99999                          -000GMLFP +000KKA82 +000HN2L8     08

# Worst residual: 6.10 km
# MJD 60610.000000 (2024 Oct 27  0:00)
Hera upper stage
1 99999U 24180Z   24300.99919926 -027D9Y2A +02S10B0P +02DHNH8IH 24778
2 99999                          -000GHPV3 +000KG4YK +000HJDIM     05

# Worst residual: 6.27 km
# MJD 60611.000000 (2024 Oct 28  0:00)
Hera upper stage
1 99999U 24180Z   24301.99919926 -02BB4Q8H +02WX7180 +02HOQI3BH 24773
2 99999                          -000GCAFG +000KC4KD +000HFNVG     02

# Worst residual: 6.51 km
# MJD 60612.000000 (2024 Oct 29  0:00)
Hera upper stage
1 99999U 24180Z   24302.99919926 -02F7M8T5 +031SFTJZ +02LUXG39H 24777
2 99999                          -000G6BAR +000K8AD0 +000HBYB1     03

# Worst residual: 6.80 km
# MJD 60613.000000 (2024 Oct 30  0:00)
Hera upper stage
1 99999U 24180Z   24303.99919926 -02J2LSMR +036MSB0O +02Q08ELFH 24771
2 99999                          -000FZSQ0 +000K4NM6 +000H89FQ     05

# Worst residual: 7.11 km
# MJD 60614.000000 (2024 Oct 31  0:00)
Hera upper stage
1 99999U 24180Z   24304.99919926 -02MVYR2Y +03BGAFC5 +02U4NM7PH 24774
2 99999                          -000FSR1D +000K19JG +000H4LUS     03

# Worst residual: 7.42 km
# MJD 60615.000000 (2024 Nov  1  0:00)
Hera upper stage
1 99999U 24180Z   24305.99919926 -02QNKKTY +03G90EDN +02Y87GHHH 24771
2 99999                          -000FL6O2 +000JY59O +000H1042     07

# Worst residual: 7.69 km
# MJD 60616.000000 (2024 Nov  2  0:00)
Hera upper stage
1 99999U 24180Z   24306.99919926 -02UDAUJI +03L10PFJ +032AWFI2H 24774
2 99999                          -000FD43Z +000JVBUD +000GXGPK     05

# Worst residual: 7.93 km
# MJD 60617.000000 (2024 Nov  3  0:00)
Hera upper stage
1 99999U 24180Z   24307.99919926 -02Y119EP +03PSE2CF +036CR5G4H 24778
2 99999                          -000F4JWV +000JSU7C +000GU03C     02

